{"version": 0.6, "generator": "Overpass API 0.7.62.10 2d4cfc48", "osm3s": {"timestamp_osm_base": "2026-02-09T19:23:47Z", "copyright": "The data included in this document is from www.openstreetmap.org. The data is made available under ODbL."}, "elements": [{"type": "node", "id": 1030901784, "lat": -25.086804, "lon": -50.1667703, "tags": {"amenity": "police", "name": "Pol\u00edcia Rodovi\u00e1ria Federal", "opening_hours": "Mo-Fr 08:00-17:00", "operator": "Pol\u00edcia Rodovi\u00e1ria Federal", "operator:wikidata": "Q1158853", "operator:wikipedia": "pt:Pol\u00edcia Rodovi\u00e1ria Federal", "phone": "+55 41 3535 2130", "police": "traffic_police", "source": "Bing"}}, {"type": "node", "id": 3092206179, "lat": -25.2133194, "lon": -50.0606386}, {"type": "node", "id": 3092206180, "lat": -25.213398, "lon": -50.0607355}, {"type": "node", "id": 3092206181, "lat": -25.2135086, "lon": -50.0606259}, {"type": "node", "id": 3092206182, "lat": -25.21343, "lon": -50.060529}, {"type": "node", "id": 4067232167, "lat": -25.0944667, "lon": -50.153385, "tags": {"amenity": "police"}}, {"type": "node", "id": 4646305455, "lat": -25.103194, "lon": -50.1575313}, {"type": "node", "id": 4646305470, "lat": -25.1031869, "lon": -50.1573647}, {"type": "node", "id": 4646305471, "lat": -25.1031651, "lon": -50.157311}, {"type": "node", "id": 4646305472, "lat": -25.1030606, "lon": -50.1573378}, {"type": "node", "id": 4646305473, "lat": -25.1030072, "lon": -50.1574237}, {"type": "node", "id": 4646305474, "lat": -25.1030145, "lon": -50.157488}, {"type": "node", "id": 5010956422, "lat": -25.1536386, "lon": -50.1649327, "tags": {"addr:street": "Rua Batu\u00edra", "amenity": "police", "name": "Penitenci\u00e1ria Estadual de Ponta Grossa", "name:pt": "Penitenci\u00e1ria Estadual de Ponta Grossa", "opening_hours": "24/7"}}, {"type": "node", "id": 6003744294, "lat": -25.04352, "lon": -50.2837455, "tags": {"amenity": "police", "email": "del03.pr@prf.gov.br", "name": "PRF - Pol\u00edcia Rodovi\u00e1ria Federal", "operator": "Pol\u00edcia Rodovi\u00e1ria Federal", "operator:wikidata": "Q1158853", "operator:wikipedia": "pt:Pol\u00edcia Rodovi\u00e1ria Federal", "phone": "+55 41 3535 2131", "police": "traffic_police"}}, {"type": "node", "id": 9579617217, "lat": -25.1028913, "lon": -50.1619114, "tags": {"addr:city": "Ponta Grossa", "addr:housenumber": "316", "addr:postcode": "84040-120", "addr:street": "Rua Carlos Osternack", "addr:suburb": "Vila Estrela", "amenity": "police", "email": "dpf.pgz.srpr@pf.gov.br", "name": "Pol\u00edcia Federal do Brasil", "operator": "Pol\u00edcia Federal do Brasil", "operator:en": "Federal Police of Brazil", "operator:wikidata": "Q2289697", "operator:wikipedia": "pt:Pol\u00edcia Federal do Brasil", "phone": "+55 42 3026 5965"}}, {"type": "way", "id": 304646167, "nodes": [3092206179, 3092206180, 3092206181, 3092206182, 3092206179], "tags": {"amenity": "police", "building": "yes", "name": "Pol\u00edcia Rodovi\u00e1ria Federal", "police": "traffic_police"}}, {"type": "way", "id": 470437014, "nodes": [4646305455, 4646305470, 4646305471, 4646305472, 4646305473, 4646305474, 4646305455], "tags": {"amenity": "police", "building": "yes"}}]}